[{"COMMENT":"GENERATED VIA SPACETRACK.ORG API","ORIGINATOR":"18 SPCS","NORAD_CAT_ID":"43476","OBJECT_NAME":"GRACE-FO 1","OBJECT_TYPE":"PAYLOAD","CLASSIFICATION_TYPE":"U","INTLDES":"18047A","EPOCH":"2024-01-04 13:07:24","EPOCH_MICROSECONDS":"974976","MEAN_MOTION":"15.27763385","ECCENTRICITY":"0.0013022","INCLINATION":"88.9836","RA_OF_ASC_NODE":"321.733","ARG_OF_PERICENTER":"356.8469","MEAN_ANOMALY":"3.2696","EPHEMERIS_TYPE":"0","ELEMENT_SET_NO":"999","REV_AT_EPOCH":"31272","BSTAR":"0.00014081","MEAN_MOTION_DOT":"0.00003854","MEAN_MOTION_DDOT":"0","FILE":"4153368","TLE_LINE0":"0 GRACE-FO 1","TLE_LINE1":"1 43476U 18047A   24004.54681684  .00003854  00000-0  14081-3 0  9993","TLE_LINE2":"2 43476  88.9836 321.7330 0013022 356.8469   3.2696 15.27763385312724","OBJECT_ID":"2018-047A","OBJECT_NUMBER":"43476","SEMIMAJOR_AXIS":"6860.637","PERIOD":"94.255","APOGEE":"491.436","PERIGEE":"473.568","DECAYED":"0"},{"COMMENT":"GENERATED VIA SPACETRACK.ORG API","ORIGINATOR":"18 SPCS","NORAD_CAT_ID":"43476","OBJECT_NAME":"GRACE-FO 1","OBJECT_TYPE":"PAYLOAD","CLASSIFICATION_TYPE":"U","INTLDES":"18047A","EPOCH":"2024-01-04 20:59:01","EPOCH_MICROSECONDS":"330944","MEAN_MOTION":"15.27766094","ECCENTRICITY":"0.001296","INCLINATION":"88.9836","RA_OF_ASC_NODE":"321.6882","ARG_OF_PERICENTER":"355.5573","MEAN_ANOMALY":"4.5559","EPHEMERIS_TYPE":"0","ELEMENT_SET_NO":"999","REV_AT_EPOCH":"31277","BSTAR":"0.00013939","MEAN_MOTION_DOT":"0.00003815","MEAN_MOTION_DDOT":"0","FILE":"4153399","TLE_LINE0":"0 GRACE-FO 1","TLE_LINE1":"1 43476U 18047A   24004.87432096  .00003815  00000-0  13939-3 0  9998","TLE_LINE2":"2 43476  88.9836 321.6882 0012960 355.5573   4.5559 15.27766094312774","OBJECT_ID":"2018-047A","OBJECT_NUMBER":"43476","SEMIMAJOR_AXIS":"6860.629","PERIOD":"94.255","APOGEE":"491.385","PERIGEE":"473.603","DECAYED":"0"},{"COMMENT":"GENERATED VIA SPACETRACK.ORG API","ORIGINATOR":"18 SPCS","NORAD_CAT_ID":"43476","OBJECT_NAME":"GRACE-FO 1","OBJECT_TYPE":"PAYLOAD","CLASSIFICATION_TYPE":"U","INTLDES":"18047A","EPOCH":"2024-01-05 14:16:33","EPOCH_MICROSECONDS":"159936","MEAN_MOTION":"15.27771255","ECCENTRICITY":"0.0012783","INCLINATION":"88.9835","RA_OF_ASC_NODE":"321.5898","ARG_OF_PERICENTER":"352.6936","MEAN_ANOMALY":"7.4125","EPHEMERIS_TYPE":"0","ELEMENT_SET_NO":"999","REV_AT_EPOCH":"31288","BSTAR":"0.00013244","MEAN_MOTION_DOT":"0.00003627","MEAN_MOTION_DDOT":"0","FILE":"4154254","TLE_LINE0":"0 GRACE-FO 1","TLE_LINE1":"1 43476U 18047A   24005.59482824  .00003627  00000-0  13244-3 0  9992","TLE_LINE2":"2 43476  88.9835 321.5898 0012783 352.6936   7.4125 15.27771255312881","OBJECT_ID":"2018-047A","OBJECT_NUMBER":"43476","SEMIMAJOR_AXIS":"6860.613","PERIOD":"94.255","APOGEE":"491.248","PERIGEE":"473.709","DECAYED":"0"},{"COMMENT":"GENERATED VIA SPACETRACK.ORG API","ORIGINATOR":"18 SPCS","NORAD_CAT_ID":"43476","OBJECT_NAME":"GRACE-FO 1","OBJECT_TYPE":"PAYLOAD","CLASSIFICATION_TYPE":"U","INTLDES":"18047A","EPOCH":"2024-01-05 22:08:09","EPOCH_MICROSECONDS":"361248","MEAN_MOTION":"15.27774059","ECCENTRICITY":"0.0012712","INCLINATION":"88.9834","RA_OF_ASC_NODE":"321.545","ARG_OF_PERICENTER":"351.392","MEAN_ANOMALY":"8.7109","EPHEMERIS_TYPE":"0","ELEMENT_SET_NO":"999","REV_AT_EPOCH":"31293","BSTAR":"0.00013111","MEAN_MOTION_DOT":"0.00003591","MEAN_MOTION_DDOT":"0","FILE":"4154502","TLE_LINE0":"0 GRACE-FO 1","TLE_LINE1":"1 43476U 18047A   24005.92233057  .00003591  00000-0  13111-3 0  9994","TLE_LINE2":"2 43476  88.9834 321.5450 0012712 351.3920   8.7109 15.27774059312932","OBJECT_ID":"2018-047A","OBJECT_NUMBER":"43476","SEMIMAJOR_AXIS":"6860.605","PERIOD":"94.255","APOGEE":"491.191","PERIGEE":"473.749","DECAYED":"0"},{"COMMENT":"GENERATED VIA SPACETRACK.ORG API","ORIGINATOR":"18 SPCS","NORAD_CAT_ID":"43476","OBJECT_NAME":"GRACE-FO 1","OBJECT_TYPE":"PAYLOAD","CLASSIFICATION_TYPE":"U","INTLDES":"18047A","EPOCH":"2024-01-06 02:51:07","EPOCH_MICROSECONDS":"63200","MEAN_MOTION":"15.27775647","ECCENTRICITY":"0.0012658","INCLINATION":"88.9835","RA_OF_ASC_NODE":"321.518","ARG_OF_PERICENTER":"350.5861","MEAN_ANOMALY":"9.515","EPHEMERIS_TYPE":"0","ELEMENT_SET_NO":"999","REV_AT_EPOCH":"31296","BSTAR":"0.00013528","MEAN_MOTION_DOT":"0.00003704","MEAN_MOTION_DDOT":"0","FILE":"4154521","TLE_LINE0":"0 GRACE-FO 1","TLE_LINE1":"1 43476U 18047A   24006.11883175  .00003704  00000-0  13528-3 0  9996","TLE_LINE2":"2 43476  88.9835 321.5180 0012658 350.5861   9.5150 15.27775647312969","OBJECT_ID":"2018-047A","OBJECT_NUMBER":"43476","SEMIMAJOR_AXIS":"6860.600","PERIOD":"94.255","APOGEE":"491.149","PERIGEE":"473.781","DECAYED":"0"},{"COMMENT":"GENERATED VIA SPACETRACK.ORG API","ORIGINATOR":"18 SPCS","NORAD_CAT_ID":"43476","OBJECT_NAME":"GRACE-FO 1","OBJECT_TYPE":"PAYLOAD","CLASSIFICATION_TYPE":"U","INTLDES":"18047A","EPOCH":"2024-01-06 12:17:02","EPOCH_MICROSECONDS":"437728","MEAN_MOTION":"15.27778371","ECCENTRICITY":"0.0012568","INCLINATION":"88.9834","RA_OF_ASC_NODE":"321.4643","ARG_OF_PERICENTER":"349.0223","MEAN_ANOMALY":"11.075","EPHEMERIS_TYPE":"0","ELEMENT_SET_NO":"999","REV_AT_EPOCH":"31302","BSTAR":"0.00013049","MEAN_MOTION_DOT":"0.00003575","MEAN_MOTION_DDOT":"0","FILE":"4155067","TLE_LINE0":"0 GRACE-FO 1","TLE_LINE1":"1 43476U 18047A   24006.51183377  .00003575  00000-0  13049-3 0  9991","TLE_LINE2":"2 43476  88.9834 321.4643 0012568 349.0223  11.0750 15.27778371313025","OBJECT_ID":"2018-047A","OBJECT_NUMBER":"43476","SEMIMAJOR_AXIS":"6860.592","PERIOD":"94.255","APOGEE":"491.080","PERIGEE":"473.835","DECAYED":"0"},{"COMMENT":"GENERATED VIA SPACETRACK.ORG API","ORIGINATOR":"18 SPCS","NORAD_CAT_ID":"43476","OBJECT_NAME":"GRACE-FO 1","OBJECT_TYPE":"PAYLOAD","CLASSIFICATION_TYPE":"U","INTLDES":"18047A","EPOCH":"2024-01-06 20:08:38","EPOCH_MICROSECONDS":"537952","MEAN_MOTION":"15.27780793","ECCENTRICITY":"0.0012502","INCLINATION":"88.9835","RA_OF_ASC_NODE":"321.4195","ARG_OF_PERICENTER":"347.7243","MEAN_ANOMALY":"12.37","EPHEMERIS_TYPE":"0","ELEMENT_SET_NO":"999","REV_AT_EPOCH":"31307","BSTAR":"0.00012884","MEAN_MOTION_DOT":"0.0000353","MEAN_MOTION_DDOT":"0","FILE":"4155325","TLE_LINE0":"0 GRACE-FO 1","TLE_LINE1":"1 43476U 18047A   24006.83933493  .00003530  00000-0  12884-3 0  9995","TLE_LINE2":"2 43476  88.9835 321.4195 0012502 347.7243  12.3700 15.27780793313078","OBJECT_ID":"2018-047A","OBJECT_NUMBER":"43476","SEMIMAJOR_AXIS":"6860.585","PERIOD":"94.254","APOGEE":"491.027","PERIGEE":"473.873","DECAYED":"0"},{"COMMENT":"GENERATED VIA SPACETRACK.ORG API","ORIGINATOR":"18 SPCS","NORAD_CAT_ID":"43476","OBJECT_NAME":"GRACE-FO 1","OBJECT_TYPE":"PAYLOAD","CLASSIFICATION_TYPE":"U","INTLDES":"18047A","EPOCH":"2024-01-07 11:51:50","EPOCH_MICROSECONDS":"590656","MEAN_MOTION":"15.27785943","ECCENTRICITY":"0.0012359","INCLINATION":"88.9836","RA_OF_ASC_NODE":"321.3297","ARG_OF_PERICENTER":"345.11","MEAN_ANOMALY":"14.9784","EPHEMERIS_TYPE":"0","ELEMENT_SET_NO":"999","REV_AT_EPOCH":"31317","BSTAR":"0.0001381","MEAN_MOTION_DOT":"0.00003782","MEAN_MOTION_DDOT":"0","FILE":"4155650","TLE_LINE0":"0 GRACE-FO 1","TLE_LINE1":"1 43476U 18047A   24007.49433554  .00003782  00000-0  13810-3 0  9990","TLE_LINE2":"2 43476  88.9836 321.3297 0012359 345.1100  14.9784 15.27785943313178","OBJECT_ID":"2018-047A","OBJECT_NUMBER":"43476","SEMIMAJOR_AXIS":"6860.569","PERIOD":"94.254","APOGEE":"490.913","PERIGEE":"473.956","DECAYED":"0"},{"COMMENT":"GENERATED VIA SPACETRACK.ORG API","ORIGINATOR":"18 SPCS","NORAD_CAT_ID":"43476","OBJECT_NAME":"GRACE-FO 1","OBJECT_TYPE":"PAYLOAD","CLASSIFICATION_TYPE":"U","INTLDES":"18047A","EPOCH":"2024-01-07 13:26:09","EPOCH_MICROSECONDS":"785472","MEAN_MOTION":"15.27786895","ECCENTRICITY":"0.0012345","INCLINATION":"88.9836","RA_OF_ASC_NODE":"321.3208","ARG_OF_PERICENTER":"344.8488","MEAN_ANOMALY":"15.239","EPHEMERIS_TYPE":"0","ELEMENT_SET_NO":"999","REV_AT_EPOCH":"31318","BSTAR":"0.00014725","MEAN_MOTION_DOT":"0.0000403","MEAN_MOTION_DDOT":"0","FILE":"4155883","TLE_LINE0":"0 GRACE-FO 1","TLE_LINE1":"1 43476U 18047A   24007.55983548  .00004030  00000-0  14725-3 0  9993","TLE_LINE2":"2 43476  88.9836 321.3208 0012345 344.8488  15.2390 15.27786895313185","OBJECT_ID":"2018-047A","OBJECT_NUMBER":"43476","SEMIMAJOR_AXIS":"6860.567","PERIOD":"94.254","APOGEE":"490.901","PERIGEE":"473.962","DECAYED":"0"},{"COMMENT":"GENERATED VIA SPACETRACK.ORG API","ORIGINATOR":"18 SPCS","NORAD_CAT_ID":"43476","OBJECT_NAME":"GRACE-FO 1","OBJECT_TYPE":"PAYLOAD","CLASSIFICATION_TYPE":"U","INTLDES":"18047A","EPOCH":"2024-01-07 21:17:45","EPOCH_MICROSECONDS":"730176","MEAN_MOTION":"15.27789199","ECCENTRICITY":"0.0012286","INCLINATION":"88.9836","RA_OF_ASC_NODE":"321.2759","ARG_OF_PERICENTER":"343.514","MEAN_ANOMALY":"16.5708","EPHEMERIS_TYPE":"0","ELEMENT_SET_NO":"999","REV_AT_EPOCH":"31323","BSTAR":"0.00014358","MEAN_MOTION_DOT":"0.00003931","MEAN_MOTION_DDOT":"0","FILE":"4156156","TLE_LINE0":"0 GRACE-FO 1","TLE_LINE1":"1 43476U 18047A   24007.88733484  .00003931  00000-0  14358-3 0  9992","TLE_LINE2":"2 43476  88.9836 321.2759 0012286 343.5140  16.5708 15.27789199313233","OBJECT_ID":"2018-047A","OBJECT_NUMBER":"43476","SEMIMAJOR_AXIS":"6860.560","PERIOD":"94.254","APOGEE":"490.854","PERIGEE":"473.996","DECAYED":"0"}]